{"type": "FeatureCollection", "features": [ {"type": "Feature", "properties": {"norad_id": 28659, "name": "DIRECTV 8", "group": "intelsat", "lat": 0.009371742669069615, "lon": 36.26417793359306, "alt_km": 35794.74374727475, "timestamp": "2025-12-11T05:00:25.978585+00:00", "meta": {"OBJECT_NAME": "DIRECTV 8", "OBJECT_ID": "2005-019A", "EPOCH": "2025-12-10T14:41:19.521600", "MEAN_MOTION": 1.00272305, "ECCENTRICITY": 0.00031388, "INCLINATION": 0.0102, "RA_OF_ASC_NODE": 37.1466, "ARG_OF_PERICENTER": 227.4425, "MEAN_ANOMALY": 276.2856, "EPHEMERIS_TYPE": 0, "CLASSIFICATION_TYPE": "U", "NORAD_CAT_ID": 28659, "ELEMENT_SET_NO": 999, "REV_AT_EPOCH": 7518, "BSTAR": 0, "MEAN_MOTION_DOT": 5e-08, "MEAN_MOTION_DDOT": 0}, "tle": {"line1": "1 28659U 05019A   25344.61203150  .00000005  00000+0  00000+0 0  9994", "line2": "2 28659   0.0102  37.1466 0003138 227.4425 276.2856  1.00272305 75180"}}, "geometry": {"type": "Point", "coordinates": [36.26417793359306, 0.009371742669069615]}}, {"type": "Feature", "properties": {"norad_id": 28702, "name": "GALAXY 28 (G-28)", "group": "intelsat", "lat": -0.6954244464451871, "lon": 66.61630836525786, "alt_km": 35797.45813724645, "timestamp": "2025-12-11T05:00:25.978596+00:00", "meta": {"OBJECT_NAME": "GALAXY 28 (G-28)", "OBJECT_ID": "2005-022A", "EPOCH": "2025-12-10T19:58:09.141600", "MEAN_MOTION": 1.00270813, "ECCENTRICITY": 0.00027094, "INCLINATION": 2.8138, "RA_OF_ASC_NODE": 81.3041, "ARG_OF_PERICENTER": 181.9755, "MEAN_ANOMALY": 27.3727, "EPHEMERIS_TYPE": 0, "CLASSIFICATION_TYPE": "U", "NORAD_CAT_ID": 28702, "ELEMENT_SET_NO": 999, "REV_AT_EPOCH": 5008, "BSTAR": 0, "MEAN_MOTION_DOT": -1.82e-06, "MEAN_MOTION_DDOT": 0}, "tle": {"line1": "1 28702U 05022A   25344.83205025 -.00000182  00000+0  00000+0 0  9991", "line2": "2 28702   2.8138  81.3041 0002709 181.9755  27.3727  1.00270813 50087"}}, "geometry": {"type": "Point", "coordinates": [66.61630836525786, -0.6954244464451871]}}, {"type": "Feature", "properties": {"norad_id": 29236, "name": "GALAXY 16 (G-16)", "group": "intelsat", "lat": 0.008407181767234892, "lon": 56.27994050021068, "alt_km": 35796.56975636136, "timestamp": "2025-12-11T05:00:25.978608+00:00", "meta": {"OBJECT_NAME": "GALAXY 16 (G-16)", "OBJECT_ID": "2006-023A", "EPOCH": "2025-12-10T19:55:01.941312", "MEAN_MOTION": 1.00272369, "ECCENTRICITY": 0.00026968, "INCLINATION": 0.027, "RA_OF_ASC_NODE": 143.7753, "ARG_OF_PERICENTER": 113.6715, "MEAN_ANOMALY": 22.1014, "EPHEMERIS_TYPE": 0, "CLASSIFICATION_TYPE": "U", "NORAD_CAT_ID": 29236, "ELEMENT_SET_NO": 999, "REV_AT_EPOCH": 7108, "BSTAR": 0, "MEAN_MOTION_DOT": -1.22e-06, "MEAN_MOTION_DDOT": 0}, "tle": {"line1": "1 29236U 06023A   25344.82988358 -.00000122  00000+0  00000+0 0  9996", "line2": "2 29236   0.0270 143.7753 0002696 113.6715  22.1014  1.00272369 71086"}}, "geometry": {"type": "Point", "coordinates": [56.27994050021068, 0.008407181767234892]}}, {"type": "Feature", "properties": {"norad_id": 29494, "name": "DIRECTV 9S", "group": "intelsat", "lat": -0.9250411557295913, "lon": 54.09691136438083, "alt_km": 35797.8206617081, "timestamp": "2025-12-11T05:00:25.978620+00:00", "meta": {"OBJECT_NAME": "DIRECTV 9S", "OBJECT_ID": "2006-043A", "EPOCH": "2025-12-10T19:54:31.989024", "MEAN_MOTION": 1.00271731, "ECCENTRICITY": 0.00031004, "INCLINATION": 1.9355, "RA_OF_ASC_NODE": 83.2292, "ARG_OF_PERICENTER": 178.804, "MEAN_ANOMALY": 15.1868, "EPHEMERIS_TYPE": 0, "CLASSIFICATION_TYPE": "U", "NORAD_CAT_ID": 29494, "ELEMENT_SET_NO": 999, "REV_AT_EPOCH": 4949, "BSTAR": 0, "MEAN_MOTION_DOT": -1.08e-06, "MEAN_MOTION_DDOT": 0}, "tle": {"line1": "1 29494U 06043A   25344.82953691 -.00000108  00000+0  00000+0 0  9990", "line2": "2 29494   1.9355  83.2292 0003100 178.8040  15.1868  1.00271731 49498"}}, "geometry": {"type": "Point", "coordinates": [54.09691136438083, -0.9250411557295913]}}, {"type": "Feature", "properties": {"norad_id": 31307, "name": "GALAXY 17 (G-17)", "group": "intelsat", "lat": -0.5007061588106616, "lon": 70.2974316358045, "alt_km": 35811.15440505532, "timestamp": "2025-12-11T05:00:25.978631+00:00", "meta": {"OBJECT_NAME": "GALAXY 17 (G-17)", "OBJECT_ID": "2007-016B", "EPOCH": "2025-12-10T19:59:09.047040", "MEAN_MOTION": 1.00272524, "ECCENTRICITY": 0.00059721, "INCLINATION": 2.4955, "RA_OF_ASC_NODE": 82.3051, "ARG_OF_PERICENTER": 163.1461, "MEAN_ANOMALY": 49.1509, "EPHEMERIS_TYPE": 0, "CLASSIFICATION_TYPE": "U", "NORAD_CAT_ID": 31307, "ELEMENT_SET_NO": 999, "REV_AT_EPOCH": 6791, "BSTAR": 0, "MEAN_MOTION_DOT": -2.02e-06, "MEAN_MOTION_DDOT": 0}, "tle": {"line1": "1 31307U 07016B   25344.83274360 -.00000202  00000+0  00000+0 0  9992", "line2": "2 31307   2.4955  82.3051 0005972 163.1461  49.1509  1.00272524 67919"}}, "geometry": {"type": "Point", "coordinates": [70.2974316358045, -0.5007061588106616]}}, {"type": "Feature", "properties": {"norad_id": 31862, "name": "DIRECTV 10", "group": "intelsat", "lat": 0.0017496998926639794, "lon": 52.48961849423252, "alt_km": 35788.20880087769, "timestamp": "2025-12-11T05:00:25.978643+00:00", "meta": {"OBJECT_NAME": "DIRECTV 10", "OBJECT_ID": "2007-032A", "EPOCH": "2025-12-10T19:53:54.549312", "MEAN_MOTION": 1.00270298, "ECCENTRICITY": 4.46e-05, "INCLINATION": 0.0203, "RA_OF_ASC_NODE": 160.5046, "ARG_OF_PERICENTER": 46.8273, "MEAN_ANOMALY": 68.1606, "EPHEMERIS_TYPE": 0, "CLASSIFICATION_TYPE": "U", "NORAD_CAT_ID": 31862, "ELEMENT_SET_NO": 999, "REV_AT_EPOCH": 4370, "BSTAR": 0, "MEAN_MOTION_DOT": -9.8e-07, "MEAN_MOTION_DDOT": 0}, "tle": {"line1": "1 31862U 07032A   25344.82910358 -.00000098  00000+0  00000+0 0  9992", "line2": "2 31862   0.0203 160.5046 0000446  46.8273  68.1606  1.00270298 43703"}}, "geometry": {"type": "Point", "coordinates": [52.48961849423252, 0.0017496998926639794]}}, {"type": "Feature", "properties": {"norad_id": 32253, "name": "INTELSAT 11 (IS-11)", "group": "intelsat", "lat": -2.4512468611690705, "lon": 27.80179440882965, "alt_km": 36163.08120608673, "timestamp": "2025-12-11T05:00:25.978655+00:00", "meta": {"OBJECT_NAME": "INTELSAT 11 (IS-11)", "OBJECT_ID": "2007-044B", "EPOCH": "2025-12-10T14:39:34.689024", "MEAN_MOTION": 0.99047904, "ECCENTRICITY": 0.00090202, "INCLINATION": 3.0749, "RA_OF_ASC_NODE": 80.9985, "ARG_OF_PERICENTER": 165.1974, "MEAN_ANOMALY": 288.3334, "EPHEMERIS_TYPE": 0, "CLASSIFICATION_TYPE": "U", "NORAD_CAT_ID": 32253, "ELEMENT_SET_NO": 999, "REV_AT_EPOCH": 6658, "BSTAR": 0, "MEAN_MOTION_DOT": 7.9e-07, "MEAN_MOTION_DDOT": 0}, "tle": {"line1": "1 32253U 07044B   25344.61081816  .00000079  00000+0  00000+0 0  9993", "line2": "2 32253   3.0749  80.9985 0009020 165.1974 288.3334  0.99047904 66581"}}, "geometry": {"type": "Point", "coordinates": [27.80179440882965, -2.4512468611690705]}}, {"type": "Feature", "properties": {"norad_id": 32388, "name": "HORIZONS-2", "group": "intelsat", "lat": -0.03589808999686307, "lon": 81.49970515335373, "alt_km": 35807.30836196216, "timestamp": "2025-12-11T05:00:25.978667+00:00", "meta": {"OBJECT_NAME": "HORIZONS-2", "OBJECT_ID": "2007-063B", "EPOCH": "2025-12-10T20:02:23.735616", "MEAN_MOTION": 1.00270237, "ECCENTRICITY": 0.00049734, "INCLINATION": 2.1168, "RA_OF_ASC_NODE": 82.9802, "ARG_OF_PERICENTER": 188.2282, "MEAN_ANOMALY": 35.4076, "EPHEMERIS_TYPE": 0, "CLASSIFICATION_TYPE": "U", "NORAD_CAT_ID": 32388, "ELEMENT_SET_NO": 999, "REV_AT_EPOCH": 6592, "BSTAR": 0, "MEAN_MOTION_DOT": -2.48e-06, "MEAN_MOTION_DDOT": 0}, "tle": {"line1": "1 32388U 07063B   25344.83499694 -.00000248  00000+0  00000+0 0  9993", "line2": "2 32388   2.1168  82.9802 0004973 188.2282  35.4076  1.00270237 65926"}}, "geometry": {"type": "Point", "coordinates": [81.49970515335373, -0.03589808999686307]}}, {"type": "Feature", "properties": {"norad_id": 32729, "name": "DIRECTV 11", "group": "intelsat", "lat": 0.008091211901459302, "lon": 56.074480334454414, "alt_km": 35788.045693263426, "timestamp": "2025-12-11T05:00:25.978678+00:00", "meta": {"OBJECT_NAME": "DIRECTV 11", "OBJECT_ID": "2008-013A", "EPOCH": "2025-12-10T19:55:09.428736", "MEAN_MOTION": 1.00269537, "ECCENTRICITY": 4.841e-05, "INCLINATION": 0.0266, "RA_OF_ASC_NODE": 165.676, "ARG_OF_PERICENTER": 20.8459, "MEAN_ANOMALY": 92.8714, "EPHEMERIS_TYPE": 0, "CLASSIFICATION_TYPE": "U", "NORAD_CAT_ID": 32729, "ELEMENT_SET_NO": 999, "REV_AT_EPOCH": 4370, "BSTAR": 0, "MEAN_MOTION_DOT": -1.2e-06, "MEAN_MOTION_DDOT": 0}, "tle": {"line1": "1 32729U 08013A   25344.82997024 -.00000120  00000+0  00000+0 0  9996", "line2": "2 32729   0.0266 165.6760 0000484  20.8459  92.8714  1.00269537 43702"}}, "geometry": {"type": "Point", "coordinates": [56.074480334454414, 0.008091211901459302]}}, {"type": "Feature", "properties": {"norad_id": 32951, "name": "GALAXY 18 (G-18)", "group": "intelsat", "lat": 0.031549525104855945, "lon": 32.305008519516754, "alt_km": 35793.94602003551, "timestamp": "2025-12-11T05:00:25.978689+00:00", "meta": {"OBJECT_NAME": "GALAXY 18 (G-18)", "OBJECT_ID": "2008-024A", "EPOCH": "2025-12-10T18:05:27.436992", "MEAN_MOTION": 1.00273034, "ECCENTRICITY": 0.00031187, "INCLINATION": 0.0175, "RA_OF_ASC_NODE": 311.7173, "ARG_OF_PERICENTER": 311.9495, "MEAN_ANOMALY": 324.4196, "EPHEMERIS_TYPE": 0, "CLASSIFICATION_TYPE": "U", "NORAD_CAT_ID": 32951, "ELEMENT_SET_NO": 999, "REV_AT_EPOCH": 4396, "BSTAR": 0, "MEAN_MOTION_DOT": 3e-07, "MEAN_MOTION_DDOT": 0}, "tle": {"line1": "1 32951U 08024A   25344.75378978  .00000030  00000+0  00000+0 0  9997", "line2": "2 32951   0.0175 311.7173 0003118 311.9495 324.4196  1.00273034 43964"}}, "geometry": {"type": "Point", "coordinates": [32.305008519516754, 0.031549525104855945]}}]}